[{"OBJECT_NAME":"STARLINK-30265","OBJECT_ID":"2023-122Q","EPOCH":"2026-03-09T02:41:42.936864","MEAN_MOTION":15.26741509,"ECCENTRICITY":0.00012252,"INCLINATION":43.0004,"RA_OF_ASC_NODE":95.3336,"ARG_OF_PERICENTER":290.4065,"MEAN_ANOMALY":69.6655,"EPHEMERIS_TYPE":0,"CLASSIFICATION_TYPE":"U","NORAD_CAT_ID":57646,"ELEMENT_SET_NO":999,"REV_AT_EPOCH":14212,"BSTAR":4.6145162e-5,"MEAN_MOTION_DOT":9.78e-6,"MEAN_MOTION_DDOT":0},{"OBJECT_NAME":"SL-3 R\/B","OBJECT_ID":"1983-003B","EPOCH":"2026-03-09T21:31:00.897888","MEAN_MOTION":15.34640469,"ECCENTRICITY":0.00285789,"INCLINATION":81.155,"RA_OF_ASC_NODE":261.9078,"ARG_OF_PERICENTER":155.4571,"MEAN_ANOMALY":204.8036,"EPHEMERIS_TYPE":0,"CLASSIFICATION_TYPE":"U","NORAD_CAT_ID":13771,"ELEMENT_SET_NO":999,"REV_AT_EPOCH":35642,"BSTAR":0.00033440366,"MEAN_MOTION_DOT":0.00011405,"MEAN_MOTION_DDOT":0}]
